NORAD_CAT_ID,OBJECT_NAME,OBJECT_TYPE,EPOCH,MEAN_MOTION,ECCENTRICITY,INCLINATION,RA_OF_ASC_NODE,ARG_OF_PERICENTER,MEAN_ANOMALY,BSTAR,MEAN_MOTION_DOT,MEAN_MOTION_DDOT,TLE_LINE0,TLE_LINE1,TLE_LINE2,SEMIMAJOR_AXIS,PERIOD,APOGEE,PERIGEE,DECAYED
51884.0,STARLINK-3577,PAYLOAD,2022-08-14 22:00:00,15.08853529,0.0001766999999999,53.2161,87.4922,58.8739,25.0009,-0.0012544,-0.00020204,0.0,0 STARLINK-3577,1 51884U 22022AJ  22226.91667824 -.00020204  00000-0 -12544-2 0  9999,2 51884  53.2161  87.4922 0001767  58.8739  25.0009 15.08853529  1305,6917.839,95.437,540.9259999999998,538.482,0.0
51884.0,STARLINK-3577,PAYLOAD,2022-08-15 06:00:00,15.08854007,0.0001643,53.216,85.9949,58.0611,37.4153,-0.0030959,-0.00049242,0.0,0 STARLINK-3577,1 51884U 22022AJ  22227.25001157 -.00049242  00000-0 -30959-2 0  9991,2 51884  53.2160  85.9949 0001643  58.0611  37.4153 15.08854007 26700,6917.8380000000025,95.437,540.839,538.566,0.0
51884.0,STARLINK-3577,PAYLOAD,2022-08-15 14:00:01,15.08821563,0.0001551999999999,53.2163,84.4974,65.4153,41.6511,0.0018932999999999,0.00029957,0.0,0 STARLINK-3577,1 51884U 22022AJ  22227.58334491  .00029957  00000-0  18933-2 0  9994,2 51884  53.2163  84.4974 0001552  65.4153  41.6511 15.08821563  1302,6917.937,95.439,540.875,538.7280000000002,0.0
51884.0,STARLINK-3577,PAYLOAD,2022-08-15 22:00:00,15.0883384,0.0001674,53.2162,83.0027,58.608,60.0457,-3.8198e-05,-8.96e-06,0.0,0 STARLINK-3577,1 51884U 22022AJ  22227.91667824 -.00000896  00000-0 -38198-4 0  9990,2 51884  53.2162  83.0027 0001674  58.6080  60.0457 15.08833840  1308,6917.899,95.438,540.922,538.606,0.0
51884.0,STARLINK-3577,PAYLOAD,2022-08-16 14:00:01,15.08843779,0.000153,53.2163,80.0081,67.2694,74.572,0.0014085999999999,0.00022203,0.0,0 STARLINK-3577,1 51884U 22022AJ  22228.58334491  .00022203  00000-0  14086-2 0  9997,2 51884  53.2163  80.0081 0001530  67.2694  74.5720 15.08843779  1309,6917.869000000002,95.437,540.7919999999998,538.675,0.0
51884.0,STARLINK-3577,PAYLOAD,2022-08-16 22:00:00,15.08853685,0.00016,53.2162,78.5135,58.8189,94.6333,-0.0024871,-0.00039667,0.0,0 STARLINK-3577,1 51884U 22022AJ  22228.91667824 -.00039667  00000-0 -24871-2 0  9990,2 51884  53.2162  78.5135 0001600  58.8189  94.6333 15.08853685 26951,6917.839,95.437,540.81,538.597,0.0
51884.0,STARLINK-3577,PAYLOAD,2022-08-17 14:00:01,15.08833544,0.0001440999999999,53.2162,75.5191,67.502,109.1259,0.00091308,0.00014271,0.0,0 STARLINK-3577,1 51884U 22022AJ  22229.58334491  .00014271  00000-0  91308-3 0  9997,2 51884  53.2162  75.5191 0001441  67.5020 109.1259 15.08833544 27057,6917.9,95.438,540.762,538.768,0.0
51884.0,STARLINK-3577,PAYLOAD,2022-08-17 16:00:00,15.08849197,0.0001456,53.2161,75.1455,65.6331,203.8895,-0.00083076,-0.00013488,0.0,0 STARLINK-3577,1 51884U 22022AJ  22229.66667824 -.00013488  00000-0 -83076-3 0  9999,2 51884  53.2161  75.1455 0001456  65.6331 203.8895 15.08849197  1304,6917.852,95.437,540.725,538.71,0.0
51884.0,STARLINK-3577,PAYLOAD,2022-08-18 08:00:01,15.08838406,0.0001491,53.2167,72.1515,60.312,232.4164,-0.0043443999999999,-0.00068766,0.0,0 STARLINK-3577,1 51884U 22022AJ  22230.33334491 -.00068766  00000-0 -43444-2 0  9999,2 51884  53.2167  72.1515 0001491  60.3120 232.4164 15.08838406 27161,6917.885,95.438,540.7819999999998,538.719,0.0
51884.0,STARLINK-3577,PAYLOAD,2022-08-18 14:00:01,15.08772846,0.000146,53.2169,71.0282,63.0336,148.3773,0.0058626,0.0009408999999999,0.0,0 STARLINK-3577,1 51884U 22022AJ  22230.58334491  .00094090  00000-0  58626-2 0  9991,2 51884  53.2169  71.0282 0001460  63.0336 148.3773 15.08772846  1301,6918.0859999999975,95.442,540.961,538.941,0.0
51884.0,STARLINK-3577,PAYLOAD,2022-08-18 22:00:00,15.08822834,0.0001715,53.216,69.5355,60.3881,162.6124,0.0018424,0.00029142,0.0,0 STARLINK-3577,1 51884U 22022AJ  22230.91667824  .00029142  00000-0  18424-2 0  9995,2 51884  53.2160  69.5355 0001715  60.3881 162.6124 15.08822834  1305,6917.933000000001,95.439,540.984,538.611,0.0
51884.0,STARLINK-3577,PAYLOAD,2022-08-19 14:00:01,15.08857364,0.0001716,53.2162,66.541,69.1919,176.9949,-0.0020465,-0.00032726,0.0,0 STARLINK-3577,1 51884U 22022AJ  22231.58334491 -.00032726  00000-0 -20465-2 0  9992,2 51884  53.2162  66.5410 0001716  69.1919 176.9949 15.08857364  1305,6917.8269999999975,95.436,540.879,538.505,0.0
51884.0,STARLINK-3577,PAYLOAD,2022-08-19 16:00:00,15.088528699999998,0.0001748,53.2162,66.1674,67.1203,271.9694,-0.0022056999999999,-0.00035233,0.0,0 STARLINK-3577,1 51884U 22022AJ  22231.66667824 -.00035233  00000-0 -22057-2 0  9995,2 51884  53.2162  66.1674 0001748  67.1203 271.9694 15.08852870 27366,6917.840999999999,95.437,540.915,538.497,0.0
51884.0,STARLINK-3577,PAYLOAD,2022-08-19 22:00:00,15.08815123,0.0001872,53.2163,65.0463,61.7776,196.0104,0.0016116,0.00025436,0.0,0 STARLINK-3577,1 51884U 22022AJ  22231.91667824  .00025436  00000-0  16116-2 0  9994,2 51884  53.2163  65.0463 0001872  61.7776 196.0104 15.08815123  1303,6917.956,95.439,541.116,538.526,0.0
51884.0,STARLINK-3577,PAYLOAD,2022-08-20 14:00:01,15.08860926,0.0001776999999999,53.2167,62.0507,70.2795,210.6681,-0.0020402,-0.0003263,0.0,0 STARLINK-3577,1 51884U 22022AJ  22232.58334491 -.00032630  00000-0 -20402-2 0  9998,2 51884  53.2167  62.0507 0001777  70.2795 210.6681 15.08860926 27507,6917.816,95.436,540.911,538.452,0.0
51884.0,STARLINK-3577,PAYLOAD,2022-08-20 22:00:00,15.08838453,0.0001888,53.2167,60.5572,61.1439,231.4152,-0.00046941,-7.751e-05,0.0,0 STARLINK-3577,1 51884U 22022AJ  22232.91667824 -.00007751  00000-0 -46941-3 0  9997,2 51884  53.2167  60.5572 0001888  61.1439 231.4152 15.08838453  1303,6917.885,95.438,541.056,538.444,0.0
51884.0,STARLINK-3577,PAYLOAD,2022-08-21 14:00:01,15.08841024,0.000174,53.2171,57.5629,67.7557,247.9673,-0.0003843999999999,-6.401e-05,0.0,0 STARLINK-3577,1 51884U 22022AJ  22233.58334491 -.00006401  00000-0 -38440-3 0  9998,2 51884  53.2171  57.5629 0001740  67.7557 247.9673 15.08841024  1305,6917.877,95.437,540.946,538.539,0.0
51884.0,STARLINK-3577,PAYLOAD,2022-08-21 22:00:00,15.08816271,0.0001867,53.2171,56.0682,60.7329,266.5899,0.0025889,0.00041129,0.0,0 STARLINK-3577,1 51884U 22022AJ  22233.91667824  .00041129  00000-0  25889-2 0  9990,2 51884  53.2171  56.0682 0001867  60.7329 266.5899 15.08816271  1301,6917.953,95.439,541.11,538.526,0.0
51884.0,STARLINK-3577,PAYLOAD,2022-08-22 12:00:00,15.08841151,0.0001729,53.2172,53.4476,69.7372,187.8663,0.0013079,0.00020589,0.0,0 STARLINK-3577,1 51884U 22022AJ  22234.50001157  .00020589  00000-0  13079-2 0  9992,2 51884  53.2172  53.4476 0001729  69.7372 187.8663 15.08841151  1307,6917.877,95.437,540.938,538.5459999999998,0.0
51884.0,STARLINK-3577,PAYLOAD,2022-08-22 22:00:00,15.08838669,0.0001781999999999,53.2171,51.57899999999999,60.5503,301.5646,-0.00024895,-4.248e-05,0.0,0 STARLINK-3577,1 51884U 22022AJ  22234.91667824 -.00004248  00000-0 -24895-3 0  9991,2 51884  53.2171  51.5790 0001782  60.5503 301.5646 15.08838669  1304,6917.884,95.438,540.982,538.5169999999998,0.0
51884.0,STARLINK-3577,PAYLOAD,2022-08-23 06:00:00,15.08821838,0.0001592,53.2171,50.081,65.6237,308.0873,0.00020567,2.985e-05,0.0,0 STARLINK-3577,1 51884U 22022AJ  22235.25001157  .00002985  00000-0  20567-3 0  9996,2 51884  53.2171  50.0810 0001592  65.6237 308.0873 15.08821838 27919,6917.936,95.439,540.9019999999998,538.7,0.0
51884.0,STARLINK-3577,PAYLOAD,2022-08-23 14:00:01,15.08844789,0.0001608,53.2172,48.5849,67.8565,317.4221,-0.0013517,-0.00021739,0.0,0 STARLINK-3577,1 51884U 22022AJ  22235.58334491 -.00021739  00000-0 -13517-2 0  9998,2 51884  53.2172  48.5849 0001608  67.8565 317.4221 15.08844789  1306,6917.866,95.437,540.8430000000002,538.618,0.0
51884.0,STARLINK-3577,PAYLOAD,2022-08-23 22:00:01,15.08810474,0.0001689,53.2169,47.0898,60.8674,336.0709,0.0026598,0.00042263,0.0,0 STARLINK-3577,1 51884U 22022AJ  22235.91668981  .00042263  00000-0  26598-2 0  9995,2 51884  53.2169  47.0898 0001689  60.8674 336.0709 15.08810474  1305,6917.971,95.439,541.004,538.6669999999998,0.0
51884.0,STARLINK-3577,PAYLOAD,2022-08-24 14:00:01,15.08854457,0.0001595999999999,53.2168,44.0959,69.2222,350.8131,-0.0017469999999999,-0.00027995,0.0,0 STARLINK-3577,1 51884U 22022AJ  22236.58334491 -.00027995  00000-0 -17470-2 0  9991,2 51884  53.2168  44.0959 0001596  69.2222 350.8131 15.08854457  1300,6917.8359999999975,95.437,540.805,538.597,0.0
51884.0,STARLINK-3577,PAYLOAD,2022-08-24 16:00:00,15.08850252,0.0001621999999999,53.2167,43.7222,66.7538,86.184,-0.0016910999999999,-0.00027109,0.0,0 STARLINK-3577,1 51884U 22022AJ  22236.66667824 -.00027109  00000-0 -16911-2 0  9995,2 51884  53.2167  43.7222 0001622  66.7538  86.1840 15.08850252 28124,6917.849,95.437,540.836,538.592,0.0
51884.0,STARLINK-3577,PAYLOAD,2022-08-24 22:00:00,15.08818309,0.0001655,53.2164,42.6007,62.0762,9.565,0.0027284,0.00043376,0.0,0 STARLINK-3577,1 51884U 22022AJ  22236.91667824  .00043376  00000-0  27284-2 0  9990,2 51884  53.2164  42.6007 0001655  62.0762   9.5650 15.08818309  1300,6917.946999999999,95.439,540.957,538.6669999999998,0.0
51884.0,STARLINK-3577,PAYLOAD,2022-08-25 06:00:02,15.08828151,0.0001535,53.2164,41.1024,69.7414,13.5554,0.0011993,0.00018844,0.0,0 STARLINK-3577,1 51884U 22022AJ  22237.25002315  .00018844  00000-0  11993-2 0  9998,2 51884  53.2164  41.1024 0001535  69.7414  13.5554 15.08828151 28211,6917.917,95.438,540.844,538.72,0.0
51884.0,STARLINK-3577,PAYLOAD,2022-08-25 14:00:01,15.08833238,0.0001495,53.2164,39.6067,68.5747,26.2208,-0.0019394,-0.00031015,0.0,0 STARLINK-3577,1 51884U 22022AJ  22237.58334491 -.00031015  00000-0 -19394-2 0  9997,2 51884  53.2164  39.6067 0001495  68.5747  26.2208 15.08833238  1301,6917.901,95.438,540.8,538.732,0.0
51884.0,STARLINK-3577,PAYLOAD,2022-08-25 22:00:00,15.08800812,0.0001551999999999,53.2161,38.1114,60.3472,46.0317,0.0027424,0.00043581,0.0,0 STARLINK-3577,1 51884U 22022AJ  22237.91667824  .00043581  00000-0  27424-2 0  9995,2 51884  53.2161  38.1114 0001552  60.3472  46.0317 15.08800812  1307,6918.0,95.44,540.939,538.7909999999998,0.0
